[{"OBJECT_NAME":"AETHER-5","OBJECT_ID":"2026-004P","EPOCH":"2026-03-09T23:33:59.298912","MEAN_MOTION":14.87880363,"ECCENTRICITY":0.00069004,"INCLINATION":97.8032,"RA_OF_ASC_NODE":69.1988,"ARG_OF_PERICENTER":94.3564,"MEAN_ANOMALY":265.8441,"EPHEMERIS_TYPE":0,"CLASSIFICATION_TYPE":"U","NORAD_CAT_ID":67376,"ELEMENT_SET_NO":999,"REV_AT_EPOCH":854,"BSTAR":0.00028631782,"MEAN_MOTION_DOT":2.567e-5,"MEAN_MOTION_DDOT":0},{"OBJECT_NAME":"ATLAS 28E R\/B","OBJECT_ID":"1990-031D","EPOCH":"2026-03-09T13:40:28.718976","MEAN_MOTION":14.80148972,"ECCENTRICITY":0.0058493,"INCLINATION":89.8623,"RA_OF_ASC_NODE":258.1521,"ARG_OF_PERICENTER":172.6422,"MEAN_ANOMALY":187.5674,"EPHEMERIS_TYPE":0,"CLASSIFICATION_TYPE":"U","NORAD_CAT_ID":20563,"ELEMENT_SET_NO":999,"REV_AT_EPOCH":35581,"BSTAR":0.00023423,"MEAN_MOTION_DOT":1.847e-5,"MEAN_MOTION_DDOT":0}]
